STARLINK-32640          
1 62198U 24229G   26068.55914773  .00025875  00000+0  94615-3 0  9992
2 62198  42.9959 271.2603 0000876 169.5848 190.5022 15.27592769 70547
TOMORROW-S4             
1 62386U 24247K   26068.53305366  .00012677  00000+0  46927-3 0  9990
2 62386  44.9818 117.9996 0004434 210.4078 149.6548 15.27717249 67702
